[
  {
    "COMMENT": "GENERATED VIA SPACETRACK.ORG API",
    "ORIGINATOR": "18 SPCS",
    "NORAD_CAT_ID": "43682",
    "OBJECT_NAME": "H-2A R/B",
    "OBJECT_TYPE": "ROCKET BODY",
    "CLASSIFICATION_TYPE": "U",
    "INTLDES": "18084L",
    "EPOCH": "2023-06-18 19:43:21",
    "EPOCH_MICROSECONDS": "353088",
    "MEAN_MOTION": "15.08561981",
    "ECCENTRICITY": "0.0051794",
    "INCLINATION": "98.8928",
    "RA_OF_ASC_NODE": "194.2057",
    "ARG_OF_PERICENTER": "137.5687",
    "MEAN_ANOMALY": "222.956",
    "EPHEMERIS_TYPE": "0",
    "ELEMENT_SET_NO": "999",
    "REV_AT_EPOCH": "25446",
    "BSTAR": "0.00038642",
    "MEAN_MOTION_DOT": "0.00006143",
    "MEAN_MOTION_DDOT": "0",
    "FILE": "3936745",
    "TLE_LINE0": "0 H-2A R/B",
    "TLE_LINE1": "1 43682U 18084L   23169.82177492  .00006143  00000-0  38642-3 0  9995",
    "TLE_LINE2": "2 43682  98.8928 194.2057 0051794 137.5687 222.9560 15.08561981254461",
    "OBJECT_ID": "2018-084L",
    "OBJECT_NUMBER": "43682",
    "SEMIMAJOR_AXIS": "6918.730",
    "PERIOD": "95.455",
    "APOGEE": "576.430",
    "PERIGEE": "504.760",
    "DECAYED": "0"
  },
  {
    "COMMENT": "GENERATED VIA SPACETRACK.ORG API",
    "ORIGINATOR": "18 SPCS",
    "NORAD_CAT_ID": "43682",
    "OBJECT_NAME": "H-2A R/B",
    "OBJECT_TYPE": "ROCKET BODY",
    "CLASSIFICATION_TYPE": "U",
    "INTLDES": "18084L",
    "EPOCH": "2023-06-19 02:05:24",
    "EPOCH_MICROSECONDS": "569088",
    "MEAN_MOTION": "15.08566173",
    "ECCENTRICITY": "0.00518",
    "INCLINATION": "98.8928",
    "RA_OF_ASC_NODE": "194.5128",
    "ARG_OF_PERICENTER": "136.7009",
    "MEAN_ANOMALY": "223.8304",
    "EPHEMERIS_TYPE": "0",
    "ELEMENT_SET_NO": "999",
    "REV_AT_EPOCH": "25450",
    "BSTAR": "0.00040294",
    "MEAN_MOTION_DOT": "0.00006411",
    "MEAN_MOTION_DDOT": "0",
    "FILE": "3936841",
    "TLE_LINE0": "0 H-2A R/B",
    "TLE_LINE1": "1 43682U 18084L   23170.08708992  .00006411  00000-0  40294-3 0  9994",
    "TLE_LINE2": "2 43682  98.8928 194.5128 0051800 136.7009 223.8304 15.08566173254509",
    "OBJECT_ID": "2018-084L",
    "OBJECT_NUMBER": "43682",
    "SEMIMAJOR_AXIS": "6918.717",
    "PERIOD": "95.455",
    "APOGEE": "576.421",
    "PERIGEE": "504.744",
    "DECAYED": "0"
  },
  {
    "COMMENT": "GENERATED VIA SPACETRACK.ORG API",
    "ORIGINATOR": "18 SPCS",
    "NORAD_CAT_ID": "43682",
    "OBJECT_NAME": "H-2A R/B",
    "OBJECT_TYPE": "ROCKET BODY",
    "CLASSIFICATION_TYPE": "U",
    "INTLDES": "18084L",
    "EPOCH": "2023-06-19 08:27:27",
    "EPOCH_MICROSECONDS": "761760",
    "MEAN_MOTION": "15.08569061",
    "ECCENTRICITY": "0.0051814",
    "INCLINATION": "98.8928",
    "RA_OF_ASC_NODE": "194.8198",
    "ARG_OF_PERICENTER": "135.8396",
    "MEAN_ANOMALY": "224.6983",
    "EPHEMERIS_TYPE": "0",
    "ELEMENT_SET_NO": "999",
    "REV_AT_EPOCH": "25454",
    "BSTAR": "0.00039733",
    "MEAN_MOTION_DOT": "0.00006321",
    "MEAN_MOTION_DDOT": "0",
    "FILE": "3937338",
    "TLE_LINE0": "0 H-2A R/B",
    "TLE_LINE1": "1 43682U 18084L   23170.35240465  .00006321  00000-0  39733-3 0  9996",
    "TLE_LINE2": "2 43682  98.8928 194.8198 0051814 135.8396 224.6983 15.08569061254548",
    "OBJECT_ID": "2018-084L",
    "OBJECT_NUMBER": "43682",
    "SEMIMAJOR_AXIS": "6918.709",
    "PERIOD": "95.455",
    "APOGEE": "576.422",
    "PERIGEE": "504.725",
    "DECAYED": "0"
  },
  {
    "COMMENT": "GENERATED VIA SPACETRACK.ORG API",
    "ORIGINATOR": "18 SPCS",
    "NORAD_CAT_ID": "43682",
    "OBJECT_NAME": "H-2A R/B",
    "OBJECT_TYPE": "ROCKET BODY",
    "CLASSIFICATION_TYPE": "U",
    "INTLDES": "18084L",
    "EPOCH": "2023-06-19 19:36:03",
    "EPOCH_MICROSECONDS": "158208",
    "MEAN_MOTION": "15.08576332",
    "ECCENTRICITY": "0.0051851",
    "INCLINATION": "98.8928",
    "RA_OF_ASC_NODE": "195.3573",
    "ARG_OF_PERICENTER": "134.3144",
    "MEAN_ANOMALY": "226.235",
    "EPHEMERIS_TYPE": "0",
    "ELEMENT_SET_NO": "999",
    "REV_AT_EPOCH": "25461",
    "BSTAR": "0.00042391",
    "MEAN_MOTION_DOT": "0.00006751",
    "MEAN_MOTION_DDOT": "0",
    "FILE": "3937509",
    "TLE_LINE0": "0 H-2A R/B",
    "TLE_LINE1": "1 43682U 18084L   23170.81670322  .00006751  00000-0  42391-3 0  9997",
    "TLE_LINE2": "2 43682  98.8928 195.3573 0051851 134.3144 226.2350 15.08576332254610",
    "OBJECT_ID": "2018-084L",
    "OBJECT_NUMBER": "43682",
    "SEMIMAJOR_AXIS": "6918.686",
    "PERIOD": "95.454",
    "APOGEE": "576.426",
    "PERIGEE": "504.677",
    "DECAYED": "0"
  },
  {
    "COMMENT": "GENERATED VIA SPACETRACK.ORG API",
    "ORIGINATOR": "18 SPCS",
    "NORAD_CAT_ID": "43682",
    "OBJECT_NAME": "H-2A R/B",
    "OBJECT_TYPE": "ROCKET BODY",
    "CLASSIFICATION_TYPE": "U",
    "INTLDES": "18084L",
    "EPOCH": "2023-06-20 03:33:36",
    "EPOCH_MICROSECONDS": "896544",
    "MEAN_MOTION": "15.08581506",
    "ECCENTRICITY": "0.0051866",
    "INCLINATION": "98.8929",
    "RA_OF_ASC_NODE": "195.7412",
    "ARG_OF_PERICENTER": "133.234",
    "MEAN_ANOMALY": "227.3232",
    "EPHEMERIS_TYPE": "0",
    "ELEMENT_SET_NO": "999",
    "REV_AT_EPOCH": "25466",
    "BSTAR": "0.00043578",
    "MEAN_MOTION_DOT": "0.00006944",
    "MEAN_MOTION_DDOT": "0",
    "FILE": "3937610",
    "TLE_LINE0": "0 H-2A R/B",
    "TLE_LINE1": "1 43682U 18084L   23171.14834371  .00006944  00000-0  43578-3 0  9992",
    "TLE_LINE2": "2 43682  98.8929 195.7412 0051866 133.2340 227.3232 15.08581506254664",
    "OBJECT_ID": "2018-084L",
    "OBJECT_NUMBER": "43682",
    "SEMIMAJOR_AXIS": "6918.671",
    "PERIOD": "95.454",
    "APOGEE": "576.420",
    "PERIGEE": "504.651",
    "DECAYED": "0"
  },
  {
    "COMMENT": "GENERATED VIA SPACETRACK.ORG API",
    "ORIGINATOR": "18 SPCS",
    "NORAD_CAT_ID": "43682",
    "OBJECT_NAME": "H-2A R/B",
    "OBJECT_TYPE": "ROCKET BODY",
    "CLASSIFICATION_TYPE": "U",
    "INTLDES": "18084L",
    "EPOCH": "2023-06-20 08:20:09",
    "EPOCH_MICROSECONDS": "115008",
    "MEAN_MOTION": "15.08583895",
    "ECCENTRICITY": "0.0051879",
    "INCLINATION": "98.893",
    "RA_OF_ASC_NODE": "195.9715",
    "ARG_OF_PERICENTER": "132.5728",
    "MEAN_ANOMALY": "227.9892",
    "EPHEMERIS_TYPE": "0",
    "ELEMENT_SET_NO": "999",
    "REV_AT_EPOCH": "25469",
    "BSTAR": "0.00043145",
    "MEAN_MOTION_DOT": "0.00006875",
    "MEAN_MOTION_DDOT": "0",
    "FILE": "3938135",
    "TLE_LINE0": "0 H-2A R/B",
    "TLE_LINE1": "1 43682U 18084L   23171.34732772  .00006875  00000-0  43145-3 0  9999",
    "TLE_LINE2": "2 43682  98.8930 195.9715 0051879 132.5728 227.9892 15.08583895254694",
    "OBJECT_ID": "2018-084L",
    "OBJECT_NUMBER": "43682",
    "SEMIMAJOR_AXIS": "6918.663",
    "PERIOD": "95.454",
    "APOGEE": "576.422",
    "PERIGEE": "504.635",
    "DECAYED": "0"
  },
  {
    "COMMENT": "GENERATED VIA SPACETRACK.ORG API",
    "ORIGINATOR": "18 SPCS",
    "NORAD_CAT_ID": "43682",
    "OBJECT_NAME": "H-2A R/B",
    "OBJECT_TYPE": "ROCKET BODY",
    "CLASSIFICATION_TYPE": "U",
    "INTLDES": "18084L",
    "EPOCH": "2023-06-20 19:28:44",
    "EPOCH_MICROSECONDS": "139072",
    "MEAN_MOTION": "15.08590674",
    "ECCENTRICITY": "0.0051906",
    "INCLINATION": "98.8932",
    "RA_OF_ASC_NODE": "196.5088",
    "ARG_OF_PERICENTER": "131.0622",
    "MEAN_ANOMALY": "229.5105",
    "EPHEMERIS_TYPE": "0",
    "ELEMENT_SET_NO": "999",
    "REV_AT_EPOCH": "25476",
    "BSTAR": "0.00043638",
    "MEAN_MOTION_DOT": "0.00006956",
    "MEAN_MOTION_DDOT": "0",
    "FILE": "3938544",
    "TLE_LINE0": "0 H-2A R/B",
    "TLE_LINE1": "1 43682U 18084L   23171.81162198  .00006956  00000-0  43638-3 0  9997",
    "TLE_LINE2": "2 43682  98.8932 196.5088 0051906 131.0622 229.5105 15.08590674254760",
    "OBJECT_ID": "2018-084L",
    "OBJECT_NUMBER": "43682",
    "SEMIMAJOR_AXIS": "6918.643",
    "PERIOD": "95.453",
    "APOGEE": "576.419",
    "PERIGEE": "504.596",
    "DECAYED": "0"
  },
  {
    "COMMENT": "GENERATED VIA SPACETRACK.ORG API",
    "ORIGINATOR": "18 SPCS",
    "NORAD_CAT_ID": "43682",
    "OBJECT_NAME": "H-2A R/B",
    "OBJECT_TYPE": "ROCKET BODY",
    "CLASSIFICATION_TYPE": "U",
    "INTLDES": "18084L",
    "EPOCH": "2023-06-21 12:59:21",
    "EPOCH_MICROSECONDS": "691392",
    "MEAN_MOTION": "15.08600011",
    "ECCENTRICITY": "0.0051969",
    "INCLINATION": "98.8933",
    "RA_OF_ASC_NODE": "197.3534",
    "ARG_OF_PERICENTER": "128.6838",
    "MEAN_ANOMALY": "231.9052",
    "EPHEMERIS_TYPE": "0",
    "ELEMENT_SET_NO": "999",
    "REV_AT_EPOCH": "25487",
    "BSTAR": "0.00040778",
    "MEAN_MOTION_DOT": "0.00006496",
    "MEAN_MOTION_DDOT": "0",
    "FILE": "3939133",
    "TLE_LINE0": "0 H-2A R/B",
    "TLE_LINE1": "1 43682U 18084L   23172.54122328  .00006496  00000-0  40778-3 0  9990",
    "TLE_LINE2": "2 43682  98.8933 197.3534 0051969 128.6838 231.9052 15.08600011254873",
    "OBJECT_ID": "2018-084L",
    "OBJECT_NUMBER": "43682",
    "SEMIMAJOR_AXIS": "6918.614",
    "PERIOD": "95.453",
    "APOGEE": "576.434",
    "PERIGEE": "504.524",
    "DECAYED": "0"
  }
]